BADR-4                  
1 29526U 06051A   21363.50397687  .00000163  00000+0  00000+0 0  9994
2 29526   0.0460 333.1280 0006802 324.7894   7.6639  1.00271070 34915
WILDBLUE-1              
1 29643U 06054A   21363.47667753 -.00000030  00000+0  00000+0 0  9991
2 29643   0.0177 344.7098 0001635 316.3999 217.4643  1.00271835 37443
AMC-18                  
1 29644U 06054B   21363.55404019 -.00000197  00000+0  00000+0 0  9999
2 29644   0.0089 350.4660 0002370 283.9740 300.2367  1.00270454 55209
INSAT-4B                
1 30793U 07007A   21363.58770646 -.00000172  00000+0  00000+0 0  9993
2 30793   1.8046  91.5651 0007576 179.7529 124.0050  1.00271943 25854
SKYNET 5A               
1 30794U 07007B   21363.59702229 -.00000255  00000+0  00000+0 0  9999
2 30794   1.9230  89.0657 0003531 191.3171 128.0044  1.00271860 54340
ANIK F3                 
1 31102U 07009A   21363.60660535  .00000017  00000+0  00000+0 0  9995
2 31102   0.0169 305.2045 0001834 341.8134 270.9228  1.00273157 30216
ASTRA 1L                
1 31306U 07016A   21363.50258139  .00000138  00000+0  00000+0 0  9995
2 31306   0.0860 298.1878 0005175 351.2810   8.8374  1.00273880 28661
GALAXY 17 (G-17)        
1 31307U 07016B   21363.55247025 -.00000155  00000+0  00000+0 0  9993
2 31307   0.0091 357.3864 0002860 282.3614 286.3650  1.00270440 53459
ZHONGXING-6B            
1 31800U 07031A   21363.52479814 -.00000343  00000+0  00000+0 0  9997
2 31800   0.0262  98.7201 0003186 194.5790 109.3266  1.00268069 53078
DIRECTV 10              
1 31862U 07032A   21363.56143306 -.00000084  00000+0  00000+0 0  9996
2 31862   0.0166 201.5713 0000239   2.4968 353.4868  1.00272037 29243
SPACEWAY 3              
1 32018U 07036A   21363.33634326 -.00000132  00000+0  00000+0 0  9990
2 32018   0.0109 123.6976 0000444 250.7981 109.6440  1.00267352 30209
BSAT-3A                 
1 32019U 07036B   21363.52072278 -.00000332  00000+0  00000+0 0  9996
2 32019   0.0841 253.4351 0003312   4.0943 137.9804  1.00270546 34163
OPTUS D2                
1 32252U 07044A   21363.63089581 -.00000165  00000+0  00000+0 0  9995
2 32252   0.0169 335.0504 0003539 304.1080 198.2696  1.00271410 52226
INTELSAT 11 (IS-11)     
1 32253U 07044B   21363.49028360 -.00000250  00000+0  00000+0 0  9993
2 32253   0.0149 331.1134 0002023 328.8442 291.7206  1.00270782 52141
WGS F1 (USA 195)        
1 32258U 07046A   21363.45605013  .00000059  00000+0  00000+0 0  9998
2 32258   0.0100  68.0784 0000256 332.4193 227.7760  1.00267593 35994
STAR ONE C1             
1 32293U 07056A   21363.55220861 -.00000150  00000+0  00000+0 0  9996
2 32293   0.5346  94.8516 0005100 184.6516 285.4829  1.00269508 35422
SKYNET 5B               
1 32294U 07056B   21363.57558312  .00000159  00000+0  00000+0 0  9992
2 32294   1.1020  90.1836 0003826 184.9252  55.4129  1.00271254 51849
ASTRA 4A (SIRIUS 4)     
1 32299U 07057A   21363.45240469  .00000051  00000+0  00000+0 0  9997
2 32299   0.0132  19.3348 0002796 262.0632 344.4019  1.00272322 35323
HORIZONS 2              
1 32388U 07063B   21363.54216328 -.00000164  00000+0  00000+0 0  9996
2 32388   0.0074   0.5319 0002524 273.2560 104.4475  1.00271376 51461
THURAYA-3               
1 32404U 08001A   21363.37498097 -.00000286  00000+0  00000+0 0  9999
2 32404   3.9445  20.2113 0001339 225.6512  85.6674  1.00269578 51132
EXPRESS-AM33            
1 32478U 08003A   21363.43330792 -.00000070  00000+0  00000+0 0  9997
2 32478   0.6321  95.0872 0000175  35.3838 112.6886  1.00271279 37384
THOR 5                  
1 32487U 08006A   21363.57043723  .00000009  00000+0  00000+0 0  9991
2 32487   0.0364 265.0467 0002338  23.7862  13.9994  1.00270375 50952
AMC-14                  
1 32708U 08011A   21363.28715213  .00000081  00000+0  00000+0 0  9991
2 32708  21.8191  40.3064 0037532 355.6048 183.3899  1.00273105 51806
DIRECTV 11              
1 32729U 08013A   21363.61847983 -.00000107  00000+0  00000+0 0  9993
2 32729   0.0470 183.0811 0000510 206.2496 192.4335  1.00272018 29248
ICO G1                  
1 32763U 08016A   21363.55212139 -.00000156  00000+0  00000+0 0  9990
2 32763   3.8873  23.5312 0002153 263.1159 277.4721  1.00270558 50199
VINASAT-1               
1 32767U 08018A   21363.52517091 -.00000310  00000+0  00000+0 0  9990
2 32767   0.0261 312.2733 0001085 338.7218 128.2015  1.00269918 50249
STAR ONE C2             
1 32768U 08018B   21363.55761615 -.00000258  00000+0  00000+0 0  9998
2 32768   0.0445  82.9332 0001975 221.0138 290.0188  1.00269400 50327
TIANLIAN 1-01           
1 32779U 08019A   21363.15584333 -.00000125  00000+0  00000+0 0  9990
2 32779   5.3603  69.6893 0031172 267.8331 256.3683  1.00271499 50115
AMOS-3                  
1 32794U 08022A   21363.33660491 -.00000017  00000+0  00000+0 0  9991
2 32794   0.0162 327.2340 0001117 281.9733 325.8218  1.00270134 66009
GALAXY 18 (G-18)        
1 32951U 08024A   21363.60310681  .00000044  00000+0  00000+0 0  9990
2 32951   0.0190  29.1014 0002821 251.8057 271.4763  1.00271954 29505
CHINASAT 9 (ZX 9)       
1 33051U 08028A   21363.54216328 -.00000229  00000+0  00000+0 0  9998
2 33051   0.0179  37.1015 0003657 255.2883  93.2361  1.00268510 49686
SKYNET 5C               
1 33055U 08030A   21363.45605013 -.00000121  00000+0  00000+0 0  9999
2 33055   0.0655 356.0182 0003864 272.5141 335.9519  1.00268516 49605
TURKSAT 3A              
1 33056U 08030B   21363.50720395  .00000164  00000+0  00000+0 0  9993
2 33056   0.0362  76.6018 0002461 201.2654  44.8995  1.00273267 36007
INTELSAT 25 (IS-25)     
1 33153U 08034A   21363.49246406 -.00000205  00000+0  00000+0 0  9996
2 33153   0.0392 112.6535 0002963 175.7625 315.5272  1.00270372 49344
BADR-6                  
1 33154U 08034B   21363.50397687  .00000163  00000+0  00000+0 0  9999
2 33154   0.0557  44.6220 0004266 277.0111 343.9826  1.00272886 49406
ECHOSTAR 11             
1 33207U 08035A   21363.47693920 -.00000038  00000+0  00000+0 0  9996
2 33207   0.0216  59.2486 0002453 205.3007 255.2937  1.00270748 34886
SUPERBIRD-C2            
1 33274U 08038A   21363.62525802 -.00000233  00000+0  00000+0 0  9990
2 33274   0.0168 290.6801 0001814   4.4555 172.1865  1.00269677 89385
AMC-21                  
1 33275U 08038B   21363.60203811  .00000055  00000+0  00000+0 0  9993
2 33275   0.0128 358.1081 0002399 284.3866 267.5941  1.00270829 49140
INMARSAT 4-F3           
1 33278U 08039A   21363.61969025 -.00000124  00000+0  00000+0 0  9992
2 33278   3.2579  18.1354 0002941 258.9660 306.2646  1.00272323 30195
NIMIQ 4                 
1 33373U 08044A   21363.55421463 -.00000201  00000+0  00000+0 0  9992
2 33373   0.0288  51.0851 0002395 253.6913 270.9839  1.00265646 48636
GALAXY 19 (G-19)        
1 33376U 08045A   21363.62075931 -.00000120  00000+0  00000+0 0  9999
2 33376   0.0158 333.3545 0002738 311.7057 299.6982  1.00270624 48557
ASTRA 1M                
1 33436U 08057A   21363.50258139  .00000138  00000+0  00000+0 0  9997
2 33436   0.0162  57.9477 0001845 150.9074  89.4036  1.00270848 29374
CIEL-2                  
1 33453U 08063A   21363.59860921  .00000076  00000+0  00000+0 0  9991
2 33453   0.0184 102.9207 0002891 180.5727 261.4208  1.00271877 47786
EUTELSAT HOTBIRD 13C    
1 33459U 08065A   21363.57322823  .00000105  00000+0  00000+0 0  9994
2 33459   0.0382  12.4159 0001693 256.9166  48.2985  1.00268296 30996
EUTELSAT 48D            
1 33460U 08065B   21363.42452098 -.00000082  00000+0  00000+0 0  9993
2 33460   1.0341  94.6826 0003242 182.5460 321.1924  1.00270578 47608
FENGYUN 2E              
1 33463U 08066A   21363.58796811 -.00000192  00000+0  00000+0 0  9990
2 33463   5.5313  66.2356 0003573 333.6919 356.8604  1.00271572 47736
EXPRESS-AM44            
1 33595U 09007A   21363.43382875 -.00000070  00000+0  00000+0 0  9992
2 33595   0.0454 199.9457 0000106 355.2714  48.0701  1.00272186 47208
NSS-9                   
1 33749U 09008A   21363.60139441  .00000090  00000+0  00000+0 0  9993
2 33749   0.0334 312.1701 0002002 326.7379 218.9345  1.00271739 47186
EUTELSAT 33E            
1 33750U 09008B   21363.29011757  .00000174  00000+0  00000+0 0  9992
2 33750   0.0517  14.7541 0003679 262.4871 318.2463  1.00271408 47090
TELSTAR 11N             
1 34111U 09009A   21363.41954955 -.00000232  00000+0  00000+0 0  9991
2 34111   0.0141  63.2372 0002294 202.0355 306.3017  1.00270178 29888
EUTELSAT 10A            
1 34710U 09016A   21363.46299480  .00000086  00000+0  00000+0 0  9990
2 34710   0.0615  12.3290 0005888 265.8367 356.6261  1.00271502 24904
WGS F2 (USA 204)        
1 34713U 09017A   21363.55327163  .00000086  00000+0  00000+0 0  9994
2 34713   0.0228  33.5625 0000754 351.8815 329.4365  1.00270084 29266
SES-7 (PROTOSTAR 2)     
1 34941U 09027A   21363.52046115 -.00000327  00000+0  00000+0 0  9999
2 34941   0.0092 353.1371 0001906 264.6124 136.0656  1.00271753 46269
MEASAT-3A               
1 35362U 09032A   21363.01469869 -.00000222  00000+0  00000+0 0  9996
2 35362   0.0586 238.4861 0002846  27.6000 288.3846  1.00268346 45892
GOES 14                 
1 35491U 09033A   21363.47810097 -.00000074  00000+0  00000+0 0  9998
2 35491   0.1194 292.2303 0014839 293.3912 300.2662  1.00270215 45763
FM-5                    
1 35493U 09034A   21363.55342966 -.00000181  00000+0  00000+0 0  9994
2 35493   0.0173   1.4289 0000922  81.9020 127.9852  1.00269897 30294
TERRESTAR-1             
1 35496U 09035A   21363.55468948 -.00000040  00000+0  00000+0 0  9991
2 35496   2.9802  34.7548 0002928 243.0429 269.0985  1.00271559 45789
ASIASAT 5               
1 35696U 09042A   21363.59761078 -.00000289  00000+0  00000+0 0  9990
2 35696   0.0428 281.5944 0001453 355.8856 136.4223  1.00269605 45336
JCSAT-RA (JCSAT-12)     
1 35755U 09044A   21363.52429873 -.00000328  00000+0  00000+0 0  9999
2 35755   0.0729 104.2376 0004535 186.7399 123.5473  1.00268640 45256
